K15Xb8Z 27.2   0.15 K1972  60.37411  108.06399   87.58424    2.71890  0.0348298  0.96449346   1.0145416  6 MPO369302    35   1   21 days 0.35 M-v 3Eh MPCALB     2803          2015 XZ378         20160104
K15Xb9A 25.3   0.15 K1972 116.90942  349.46318  148.54016    1.34589  0.2182372  0.67457048   1.2876105  3 MPO386958   275   1  123 days 0.31 M-v 3Eh MPCW       2804          2015 XA379         20160415
K15Xb9B 19.1   0.15 K1972 209.25500   19.26663  140.97334    8.37597  0.6389129  0.17250122   3.1960085  2 MPO438022   826   1  181 days 0.28 M-v 38h MPCLINUX   2804          2015 XB379         20160612
K15Xb9H 25.0   0.15 K1972   5.38695  353.09830   86.46522   11.51898  0.3089765  0.55730948   1.4624188  8 MPO358616     7   1    6 days 0.25 M-v 3Eh MPCW       2804          2015 XH379         20151214
K15Xb9L 20.7   0.15 K1972 320.56627  303.46963   77.64342    6.37490  0.5255312  0.23140361   2.6275801  6 MPO386958    20   1   10 days 0.30 M-v 38h MPCW       2804          2015 XL379         20151221
K15Xc4V 26.4   0.15 K1972 133.48160   19.14727  106.07300    3.09844  0.5099817  0.39103348   1.8520815  7 MPO364897     7   1    1 days 0.12 M-v 3Eh MPCW       2803          2015 XV384         20151208
K15Xc4W 25.8   0.15 K1972  78.16182   95.49085  258.58363    5.96788  0.4810010  0.58826018   1.4106624  8 MPO364898     7   1    1 days 0.15 M-v 3Eh MPCW       2803          2015 XW384         20151215
K15Y00A 27.4   0.15 K1972 275.11306   83.66938  254.99944    1.61672  0.2790376  0.99184898   0.9958005  6 MPO369302    45   1    5 days 0.52 M-v 3Eh MPCALB     2802          2015 YA            20151221
K15Y00D 24.1   0.15 K1972 117.15280  159.27008  267.45640    3.82502  0.4686378  0.36495373   1.9392964  6 MPO369302    80   1   35 days 0.37 M-v 3Eh MPCALB     2804          2015 YD            20160120
K15Y00E 23.4   0.15 K1972   7.79882  165.25848  268.09224    7.55985  0.5308158  0.28275816   2.2989311  5 MPO369302    61   1   29 days 0.32 M-v 3Eh MPCALB     2804          2015 YE            20160114
K15Y00F 24.9   0.15 K1972 186.52484  254.66705   80.19650   16.47813  0.1942357  0.91493013   1.0508581  8 MPO369302    22   1    4 days 0.41 M-v 3Eh MPCALB     2803          2015 YF            20151220
K15Y00G 23.2   0.15 K1972 343.29218  355.27032  267.93861   14.61878  0.4875974  1.52687147   0.7469091  3 MPO430839    35   2 2015-2017 0.31 M-v 3Eh MPCLINUX   0802          2015 YG            20171220
K15Y00H 27.9   0.15 K1972 229.53074  305.04595   83.36158    4.97042  0.2626172  0.70832055   1.2463772  7 MPO358617    18   1    2 days 0.35 M-v 3Eh MPCW       2803          2015 YH            20151218
K15Y00J 28.2   0.15 K1972 216.77614   78.97112  264.88042    0.12087  0.5231455  0.69360385   1.2639456  5 MPO386958    29   1    3 days 0.24 M-v 3Eh MPCW       2803          2015 YJ            20151219
K15Y00K 25.9   0.15 K1972 351.30061  237.32635  258.90275    4.69567  0.1187050  0.86110286   1.0942067  4 MPO419530    96   1   27 days 0.36 M-v 3Eh MPCLINUX   2803          2015 YK            20160101
K15Y00L 25.6   0.15 K1972 300.22493  184.77259  268.48370    1.93399  0.6064025  0.23357726   2.6112534  6 MPO377899    49   1   24 days 0.29 M-v 3Eh MPCW       2804          2015 YL            20160110
K15Y00Q 24.2   0.15 K1972 129.22280  301.48107   63.48813    4.23764  0.6374524  0.36468820   1.9402376  7 MPO369302    37   1    4 days 0.35 M-v 3Eh MPCALB     2803          2015 YQ            20151221
K15Y00R 24.6   0.15 K1972 292.13225  172.62099  264.80998   10.16398  0.3490463  0.50286506   1.5661562  6 MPO369303    84   1   16 days 0.43 M-v 3Eh MPCALB     2804          2015 YR            20160102
K15Y00S 25.8   0.15 K1972  80.86631   47.58196   82.74693   10.14372  0.2836216  0.63973608   1.3339375  7 MPO373591    23   1    3 days 0.23 M-v 3Eh MPCADO     2803          2015 YS            20151220
K15Y00T 25.8   0.15 K1972  32.01139   53.39636  270.82070    1.57839  0.2562017  1.06827292   0.9477226  7 MPO358618    26   1    2 days 0.22 M-v 3Eh MPCALB     2802          2015 YT            20151219
K15Y00Z 22.8   0.15 K1972 343.54225  140.68748    3.22844    2.36733  0.2427227  0.57584839   1.4308604  4 MPO373591    45   1   71 days 0.47 M-v 3Eh MPCALB     2804          2015 YZ            20160225
K15Y01A 24.5   0.15 K1972 139.98502   86.33695  266.38023    6.58430  0.1872686  0.88962445   1.0706929  6 MPO438022    66   1   14 days 0.45 M-v 3Eh MPCLINUX   2803          2015 YA1           20151231
K15Y01B 21.5   0.15 K1972 277.04871   65.37703   92.56779   28.62984  0.4104174  0.51631099   1.5388459  3 MPO419530   118   1  137 days 0.38 M-v 3Eh MPCLINUX   2803          2015 YB1           20160502
K15Y01C 26.0   0.15 K1972 348.78515  267.89804  266.16622    6.65774  0.2558255  0.87341102   1.0839026  2 MPO412057    98   2 2015-2017 0.39 M-v 3Eh MPCLINUX   0803          2015 YC1           20170622
K15Y01D 24.2   0.15 K1972   2.61939  179.56770  266.16949    8.54969  0.5490933  0.28091998   2.3089488  6 MPO369303    71   1   16 days 0.26 M-v 3Eh MPCALB     2804          2015 YD1           20160103
K15Y01E 27.4   0.15 K1972 199.03704   77.71270   86.08696   10.14711  0.3209467  0.74580679   1.2042551  6 MPO386959    60   1    4 days 0.43 M-v 3Eh MPCW       2803          2015 YE1           20151222
K15Y01F 23.2   0.15 K1972  88.47232  165.29354  265.60249   21.26336  0.2057314  0.61976014   1.3624491  5 MPO369303    65   1   27 days 0.29 M-v 3Eh MPCALB     2804          2015 YF1           20160114
K15Y01H 25.2   0.15 K1972 296.06684   68.90601   85.57541   24.87548  0.4436827  0.52932926   1.5135105  7 MPO377899    55   1    4 days 0.45 M-v 3Eh MPCW       2803          2015 YH1           20151222
K15Y01J 27.6   0.15 K1972 285.14297  207.58449  266.62526    3.59562  0.3701375  0.50915817   1.5532245  7 MPO377899    36   1    4 days 0.37 M-v 3Eh MPCW       2803          2015 YJ1           20151222
K15Y01M 28.4   0.15 K1972 184.86719  270.28664   86.29710    5.23323  0.2045231  0.92816111   1.0408476  4 MPO386959    37   1   20 days 0.45 M-v 3Eh MPCW       2803          2015 YM1           20160107
K15Y01N 21.0   0.15 K1972 171.80599   99.82554   28.34076    9.48767  0.3383946  0.42445520   1.7535365  3 MPO438022   105   1  103 days 0.37 M-v 38h MPCLINUX   2804          2015 YN1           20160330
K15Y01O 23.0   0.15 K1972 140.05990  299.99576   90.99064   14.46845  0.5195148  0.37318517   1.9106734  5 MPO386959    40   1   37 days 0.28 M-v 3Eh MPCW       2803          2015 YO1           20160114
K15Y01P 23.0   0.15 K1972 168.18829  225.38593  273.19521   14.85506  0.1813054  0.71358860   1.2402354  6 MPO369303    54   1   49 days 0.44 M-v 3Eh MPCALB     2804          2015 YP1           20160205
K15Y01Q 28.0   0.15 K1972 119.94443  111.84809   88.86053    2.48158  0.4036475  0.97977045   1.0039679  5 MPO369303    56   1    3 days 0.49 M-v 3Eh MPCW       2803          2015 YQ1           20151222
K15Y01R 19.1   0.15 K1972 295.14360   98.89978  296.75267   50.54913  0.3394342  0.47440399   1.6281853  1 E2019-M75   206   3 2015-2019 0.34 M-v 3Eh MPCLINUX   0804          2015 YR1           20190626
K15Y01S 20.8   0.15 K1972 146.60845  146.13095  278.94127   18.04116  0.4205538  0.38212036   1.8807710  4 MPO373592   111   1   88 days 0.32 M-v 3Eh MPCALB     2804          2015 YS1           20160314
K15Y01T 27.0   0.15 K1972 316.36077  218.60018  265.62610    4.48645  0.3422523  0.53776626   1.4976386  7 MPO369303    31   1   17 days 0.36 M-v 3Eh MPCALB     2803          2015 YT1           20160104
K15Y01U 24.8   0.15 K1972 286.84320  265.64328  269.16083    7.82613  0.1131787  0.83809180   1.1141448  2 MPO392478    90   1  235 days 0.34 M-v 3Eh MPCADO     2803          2015 YU1           20160810
K15Y01V 23.5   0.15 K1972 177.07614  281.20566   73.04094    2.88721  0.6244089  0.39917165   1.8268221  5 MPO369303    56   1   26 days 0.31 M-v 3Eh MPCALB     2803          2015 YV1           20160113
K15Y02C 23.3   0.15 K1972 296.01166   46.55338  124.04184    1.98088  0.6867585  0.24114533   2.5563294  5 MPO386959   162   1   27 days 0.31 M-v 3Eh MPCW       2803          2015 YC2           20160115
K15Y02D 22.7   0.15 K1972 331.84079  244.69793  272.78117   15.20753  0.4263742  0.56068641   1.4565409  7 MPO386959   107   1   16 days 0.41 M-v 3Eh MPCW       2803          2015 YD2           20160104
K15Y02E 25.2   0.15 K1972 113.74453   46.71511  268.07935   12.16783  0.1946195  1.11387695   0.9216752  7 MPO377899    30   1   18 days 0.43 M-v 3Eh MPCW       2802          2015 YE2           20160105
K15Y07S 21.4   0.15 K1972 312.36109  253.05199  277.26173   12.20341  0.5908767  0.25640583   2.4538657  3 MPO377899   130   1  105 days 0.25 M-v 3Eh MPCALB     2804          2015 YS7           20160401
K15Y07U 21.3   0.15 K1972  21.77378   44.21127  254.08036    7.19126  0.4126358  1.32921595   0.8192297  4 MPO466784   179   2 2015-2019 0.38 M-v 3Eh MPCLINUX   8802          2015 YU7           20190120
K15Y07X 22.0   0.15 K1972 337.79839  265.89501  148.40944    4.02899  0.6046442  0.25602888   2.4562736  4 MPO419530    67   1   94 days 0.31 M-v 3Eh MPCLINUX   2803          2015 YX7           20160203
K15Y09S 26.0   0.15 K1972  41.35995  305.51446  100.02640    1.48036  0.3672698  0.57617750   1.4303155  7 MPO386959    50   1    5 days 0.45 M-v 3Eh MPCW       2803          2015 YS9           20160103
K15Y09T 20.6   0.15 K1972 289.46925  232.45891  125.93730   10.41529  0.6202215  0.47937195   1.6169167  2 MPO438022    80   4 2007-2018 0.37 M-v 3Eh MPCLINUX   0803          2015 YT9           20180124
K15Y09V 25.8   0.15 K1972  47.19238  357.58881   93.23819    6.15551  0.5282915  0.31655910   2.1322241  6 MPO386959    44   1    5 days 0.58 M-v 3Eh MPCW       2804          2015 YV9           20160103
K15Y09Y 22.0   0.15 K1972 156.58624  300.37905   77.95206    8.29904  0.5646971  0.38712281   1.8645336  4 MPO364910   108   1   16 days 0.38 M-v 3Eh MPCALB     A803          2015 YY9           20160114
